NORAD_CAT_ID,OBJECT_NAME,OBJECT_TYPE,EPOCH,MEAN_MOTION,ECCENTRICITY,INCLINATION,RA_OF_ASC_NODE,ARG_OF_PERICENTER,MEAN_ANOMALY,BSTAR,MEAN_MOTION_DOT,MEAN_MOTION_DDOT,TLE_LINE0,TLE_LINE1,TLE_LINE2,SEMIMAJOR_AXIS,PERIOD,APOGEE,PERIGEE,DECAYED
49759.0,STARLINK-3204,PAYLOAD,2024-01-29 04:17:36,15.08848777,0.0001868,53.2202,358.0733,99.6474,260.473,0.00012121,1.642e-05,0.0,0 STARLINK-3204,1 49759U 21115AM  24029.17889473  .00001642  00000-0  12121-3 0  9991,2 49759  53.2202 358.0733 0001868  99.6474 260.4730 15.08848777120461,6917.854,95.437,541.011,538.426,0.0
49759.0,STARLINK-3204,PAYLOAD,2024-01-30 04:08:23,15.08844213,0.0001692,53.2197,353.613,94.7765,265.3421,9.4927e-05,1.223e-05,0.0,0 STARLINK-3204,1 49759U 21115AM  24030.17249585  .00001223  00000-0  94927-4 0  9997,2 49759  53.2197 353.6130 0001692  94.7765 265.3421 15.08844213120619,6917.868,95.437,540.903,538.562,0.0
49759.0,STARLINK-3204,PAYLOAD,2024-01-30 07:19:09,15.08844232,0.0001742,53.2198,353.0197,99.9545,260.1644,8.876e-05,1.125e-05,0.0,0 STARLINK-3204,1 49759U 21115AM  24030.30497546  .00001125  00000-0  88760-4 0  9993,2 49759  53.2198 353.0197 0001742  99.9545 260.1644 15.08844232119525,6917.867,95.437,540.938,538.527,0.0
49759.0,STARLINK-3204,PAYLOAD,2024-01-31 03:59:10,15.08841169,0.000167,53.2196,349.1537,102.1405,257.9775,0.00010015,1.306e-05,0.0,0 STARLINK-3204,1 49759U 21115AM  24031.16609560  .00001306  00000-0  10015-3 0  9997,2 49759  53.2196 349.1537 0001670 102.1405 257.9775 15.08841169119658,6917.877,95.437,540.897,538.587,0.0
49759.0,STARLINK-3204,PAYLOAD,2024-01-31 21:28:25,15.08835073,0.0001729,53.2198,345.8832,102.5539,257.5646,4.9312e-05,4.97e-06,0.0,0 STARLINK-3204,1 49759U 21115AM  24031.89474188  .00000497  00000-0  49312-4 0  9996,2 49759  53.2198 345.8832 0001729 102.5539 257.5646 15.08835073119760,6917.895,95.438,540.957,538.564,0.0
49759.0,STARLINK-3204,PAYLOAD,2024-02-01 03:49:58,15.08836011,0.0001605,53.2195,344.6946,100.1929,259.9244,1.9517e-05,2.3e-07,0.0,0 STARLINK-3204,1 49759U 21115AM  24032.15970243  .00000023  00000-0  19517-4 0  9998,2 49759  53.2195 344.6946 0001605 100.1929 259.9244 15.08836011120912,6917.893,95.438,540.868,538.647,0.0
49759.0,STARLINK-3204,PAYLOAD,2024-02-01 21:19:12,15.08827645,0.0001584,53.2193,341.4267,103.8376,256.2792,0.0002166,3.16e-05,0.0,0 STARLINK-3204,1 49759U 21115AM  24032.88834240  .00003160  00000-0  21660-3 0  9990,2 49759  53.2193 341.4267 0001584 103.8376 256.2792 15.08827645119912,6917.918,95.438,540.879,538.687,0.0
49759.0,STARLINK-3204,PAYLOAD,2024-02-02 02:05:21,15.08843493,0.0001439,53.219,340.536,97.8182,262.2973,7.3746e-05,8.86e-06,0.0,0 STARLINK-3204,1 49759U 21115AM  24033.08705875  .00000886  00000-0  73746-4 0  9999,2 49759  53.2190 340.5360 0001439  97.8182 262.2973 15.08843493121054,6917.87,95.437,540.73,538.739,0.0
49759.0,STARLINK-3204,PAYLOAD,2024-02-02 19:34:36,15.08846244,0.0001454,53.2192,337.2675,99.4514,260.6643,4.0144e-06,-2.24e-06,0.0,0 STARLINK-3204,1 49759U 21115AM  24033.81570082 -.00000224  00000-0  40144-5 0  9994,2 49759  53.2192 337.2675 0001454  99.4514 260.6643 15.08846244120054,6917.861,95.437,540.732,538.72,0.0
49759.0,STARLINK-3204,PAYLOAD,2024-02-03 03:31:32,15.08838936,0.000141,53.2184,335.7777,93.703,266.4124,0.00010092,1.319e-05,0.0,0 STARLINK-3204,1 49759U 21115AM  24034.14690272  .00001319  00000-0  10092-3 0  9997,2 49759  53.2184 335.7777 0001410  93.7030 266.4124 15.08838936121219,6917.884,95.438,540.724,538.773,0.0
49759.0,STARLINK-3204,PAYLOAD,2024-02-03 05:06:55,15.08840463,0.0001402,53.2183,335.4798,93.0171,267.0981,0.00011814,1.593e-05,0.0,0 STARLINK-3204,1 49759U 21115AM  24034.21314190  .00001593  00000-0  11814-3 0  9994,2 49759  53.2183 335.4798 0001402  93.0171 267.0981 15.08840463120112,6917.879,95.438,540.714,538.774,0.0
49759.0,STARLINK-3204,PAYLOAD,2024-02-04 03:22:18,15.0888088,0.0001939,53.2189,331.3177,106.9844,253.1361,-0.00042331,-7.027e-05,0.0,0 STARLINK-3204,1 49759U 21115AM  24035.14048931 -.00007027  00000-0 -42331-3 0  9992,2 49759  53.2189 331.3177 0001939 106.9844 253.1361 15.08880880121363,6917.755,95.435,540.962,538.279,0.0
49759.0,STARLINK-3204,PAYLOAD,2024-02-04 04:57:41,15.08850546,0.0001508,53.2187,331.0165,92.9409,267.1756,0.00013073,1.794e-05,0.0,0 STARLINK-3204,1 49759U 21115AM  24035.20673571  .00001794  00000-0  13073-3 0  9997,2 49759  53.2187 331.0165 0001508  92.9409 267.1756 15.08850546121378,6917.848,95.437,540.756,538.67,0.0
49759.0,STARLINK-3204,PAYLOAD,2024-02-04 19:16:10,15.08841261,0.00014,53.2178,328.3406,112.5226,247.5915,1.5471e-05,-4.2e-07,0.0,0 STARLINK-3204,1 49759U 21115AM  24035.80290332 -.00000042  00000-0  15471-4 0  9994,2 49759  53.2178 328.3406 0001400 112.5226 247.5915 15.08841261121465,6917.877,95.437,540.71,538.773,0.0
49759.0,STARLINK-3204,PAYLOAD,2024-02-05 01:37:43,15.08844589,0.0001812,53.2188,327.154,94.7326,265.3873,7.2877e-05,8.72e-06,0.0,0 STARLINK-3204,1 49759U 21115AM  24036.06786061  .00000872  00000-0  72877-4 0  9995,2 49759  53.2188 327.1540 0001812  94.7326 265.3873 15.08844589120399,6917.866,95.437,540.985,538.478,0.0
49759.0,STARLINK-3204,PAYLOAD,2024-02-05 22:17:43,15.08851085,0.0001658,53.2195,323.2902,116.3641,243.7521,7.8642e-06,-1.63e-06,0.0,0 STARLINK-3204,1 49759U 21115AM  24036.92897658 -.00000163  00000-0  78642-5 0  9996,2 49759  53.2195 323.2902 0001658 116.3641 243.7521 15.08851085120529,6917.847,95.437,540.858,538.565,0.0
49759.0,STARLINK-3204,PAYLOAD,2024-02-06 01:28:29,15.08851959,0.000159,53.2196,322.6964,83.2288,276.8885,4.5369e-05,4.34e-06,0.0,0 STARLINK-3204,1 49759U 21115AM  24037.06145618  .00000434  00000-0  45369-4 0  9993,2 49759  53.2196 322.6964 0001590  83.2288 276.8885 15.08851959121650,6917.844,95.437,540.809,538.609,0.0
49759.0,STARLINK-3204,PAYLOAD,2024-02-06 22:08:30,15.08844203,0.0001595,53.2201,318.8309,84.0029,276.1145,5.8627e-05,6.45e-06,0.0,0 STARLINK-3204,1 49759U 21115AM  24037.92257924  .00000645  00000-0  58627-4 0  9997,2 49759  53.2201 318.8309 0001595  84.0029 276.1145 15.08844203120671,6917.868,95.437,540.836,538.629,0.0
49759.0,STARLINK-3204,PAYLOAD,2024-02-07 01:19:16,15.08844832,0.0001665,53.2198,318.2352,94.0766,266.0416,5.4445e-05,5.79e-06,0.0,0 STARLINK-3204,1 49759U 21115AM  24038.05505762  .00000579  00000-0  54445-4 0  9998,2 49759  53.2198 318.2352 0001665  94.0766 266.0416 15.08844832121808,6917.866,95.437,540.882,538.579,0.0
49759.0,STARLINK-3204,PAYLOAD,2024-02-07 21:59:18,15.08837848,0.0001594,53.2178,314.3689,114.6794,245.4364,-6.1144e-05,-1.261e-05,0.0,0 STARLINK-3204,1 49759U 21115AM  24038.91618515 -.00001261  00000-0 -61144-4 0  9999,2 49759  53.2178 314.3689 0001594 114.6794 245.4364 15.08837848120820,6917.887,95.438,540.855,538.649,0.0
49759.0,STARLINK-3204,PAYLOAD,2024-02-08 01:10:04,15.08840374,0.0001722,53.2183,313.7757,119.1565,240.9599,-6.3526e-05,-1.299e-05,0.0,0 STARLINK-3204,1 49759U 21115AM  24039.04866426 -.00001299  00000-0 -63526-4 0  9997,2 49759  53.2183 313.7757 0001722 119.1565 240.9599 15.08840374121957,6917.879,95.438,540.936,538.553,0.0
49759.0,STARLINK-3204,PAYLOAD,2024-02-08 18:39:19,15.08825063,0.0001808,53.2183,310.5048,119.2126,240.9047,0.00015556,2.188e-05,0.0,0 STARLINK-3204,1 49759U 21115AM  24039.77730970  .00002188  00000-0  15556-3 0  9996,2 49759  53.2183 310.5048 0001808 119.2126 240.9047 15.08825063122063,6917.926,95.438,541.042,538.54,0.0
49759.0,STARLINK-3204,PAYLOAD,2024-02-08 21:50:05,15.08839087,0.0001542,53.2183,309.9075,111.9659,248.1497,7.9396e-06,-1.62e-06,0.0,0 STARLINK-3204,1 49759U 21115AM  24039.90978722 -.00000162  00000-0  79396-5 0  9995,2 49759  53.2183 309.9075 0001542 111.9659 248.1497 15.08839087120978,6917.883,95.438,540.815,538.681,0.0
49759.0,STARLINK-3204,PAYLOAD,2024-02-09 02:36:14,15.08842555,0.0001681,53.2187,309.0185,116.7734,243.343,6.9193e-05,8.13e-06,0.0,0 STARLINK-3204,1 49759U 21115AM  24040.10850416  .00000813  00000-0  69193-4 0  9993,2 49759  53.2187 309.0185 0001681 116.7734 243.3430 15.08842555122112,6917.873,95.437,540.9,538.575,0.0
49759.0,STARLINK-3204,PAYLOAD,2024-02-10 02:27:02,15.08835178,0.000166,53.2189,304.5611,109.6742,250.4429,0.00010055,1.312e-05,0.0,0 STARLINK-3204,1 49759U 21115AM  24041.10211463  .00001312  00000-0  10055-3 0  9994,2 49759  53.2189 304.5611 0001660 109.6742 250.4429 15.08835178122261,6917.895,95.438,540.908,538.612,0.0
49759.0,STARLINK-3204,PAYLOAD,2024-02-10 04:02:25,15.08839768,0.0001423,53.2179,304.2553,109.9122,250.2023,7.971e-05,9.81e-06,0.0,0 STARLINK-3204,1 49759U 21115AM  24041.16835158  .00000981  00000-0  79710-4 0  9998,2 49759  53.2179 304.2553 0001423 109.9122 250.2023 15.08839768121169,6917.881,95.438,540.731,538.762,0.0
49759.0,STARLINK-3204,PAYLOAD,2024-02-10 21:31:40,15.08842921,0.000165,53.2189,300.9843,108.0596,252.0576,9.2423e-05,1.183e-05,0.0,0 STARLINK-3204,1 49759U 21115AM  24041.89699300  .00001183  00000-0  92423-4 0  9996,2 49759  53.2189 300.9843 0001650 108.0596 252.0576 15.08842921121272,6917.871,95.437,540.878,538.595,0.0
49759.0,STARLINK-3204,PAYLOAD,2024-02-11 02:17:49,15.08849496,0.0001636,53.2185,300.0916,105.2998,254.8175,0.00016255,2.301e-05,0.0,0 STARLINK-3204,1 49759U 21115AM  24042.09570784  .00002301  00000-0  16255-3 0  9994,2 49759  53.2185 300.0916 0001636 105.2998 254.8175 15.08849496122415,6917.851,95.437,540.848,538.585,0.0
49759.0,STARLINK-3204,PAYLOAD,2024-02-11 21:22:27,15.08834864,0.0001628,53.2168,296.5184,70.3989,289.7179,0.00041454,6.315e-05,0.0,0 STARLINK-3204,1 49759U 21115AM  24042.89059564  .00006315  00000-0  41454-3 0  9998,2 49759  53.2168 296.5184 0001628  70.3989 289.7179 15.08834864122532,6917.896,95.438,540.887,538.635,0.0
49759.0,STARLINK-3204,PAYLOAD,2024-02-12 02:08:35,15.08856515,0.0001504,53.2171,295.6309,90.7924,269.324,0.00028233,4.21e-05,0.0,0 STARLINK-3204,1 49759U 21115AM  24043.08930379  .00004210  00000-0  28233-3 0  9994,2 49759  53.2171 295.6309 0001504  90.7924 269.3240 15.08856515122566,6917.83,95.437,540.735,538.654,0.0
